STARLINK-31506          
1 59259U 24050F   26068.52726858 -.00000129  00000+0  77823-5 0  9990
2 59259  53.1599 181.7519 0001119  59.1247 300.9864 15.30189757110521
HERMES-3                
1 63835U 25052BR  26068.93751242  .00020316  00000+0  69958-3 0  9995
2 63835  97.3987 324.6131 0007993 112.9583 247.2502 15.30039785 54863
